MALLIGYONG-1            
1 58400U 23179A   24284.86635144  .00027176  00000+0  12146-2 0  9994
2 58400  97.3838 169.6861 0009581  39.9641 320.2298 15.21256301 49318
